EYESAT A (AO-27)        
1 22825U 93061C   26177.15989309  .00000085  00000+0  49164-4 0  9995
2 22825  98.6877 244.5701 0009507  76.6745 283.5497 14.30944439708289
ITAMSAT (IO-26)         
1 22826U 93061D   26176.71721110  .00000085  00000+0  48755-4 0  9996
2 22826  98.6824 244.0459 0009906  62.8375 297.3817 14.31371492708537
RADIO ROSTO (RS15)      
1 23439U 94085A   26176.98488985 -.00000055  00000+0 -35815-3 0  9994
2 23439  64.8184 288.9880 0156239   2.2471 357.9123 11.27583444296892
JAS-2 (FO-29)           
1 24278U 96046B   26177.10925093 -.00000015  00000+0  17983-4 0  9998
2 24278  98.5233  24.7588 0350906  73.3487 290.5866 13.53274757474379
FORTE                   
1 24920U 97047A   26176.85097872  .00000159  00000+0  87338-4 0  9999
2 24920  69.9540 354.4509 0024633 266.8571  92.9733 14.27948259499922
TECHSAT 1B (GO-32)      
1 25397U 98043D   26176.98524631  .00000059  00000+0  45556-4 0  9992
2 25397  99.0071 169.9659 0001499 146.3485 213.7789 14.24429963452588
ISS (ZARYA)             
1 25544U 98067A   26177.15504249  .00009461  00000+0  17697-3 0  9995
2 25544  51.6325 255.7018 0004359 233.1468 126.9121 15.49434803573143
IMAGE                   
1 26113U 00017A   26172.42521202 -.00000086  00000+0  00000+0 0  9990
2 26113  94.2324 315.4279 7428984 287.3239   9.1864  1.68666410161572
CLUSTER II-FM7 (SAMBA)  
1 26410U 00041A   26177.06472445  .00005882  00000+0  00000+0 0  9994
2 26410 149.9012  52.3742 9061812 269.6784 359.6419  0.44870397 20352
CLUSTER II-FM8 (TANGO)  
1 26464U 00045B   26172.94229412  .00004849  00000+0  00000+0 0  9995
2 26464 150.1352  52.7746 9062813 269.8657   2.6673  0.44420336 20332
ODIN                    
1 26702U 01007A   26177.10333021  .00238419  00000+0  13083-2 0  9994
2 26702  97.3805 218.6358 0006231 132.7995 227.3797 15.79099744390804
OMNI-M1                 
1 26857U 01026A   26177.14613532  .00000002  00000+0  00000+0 0  9995
2 26857  44.8280 243.1988 0013957  55.2006 304.9925  3.92401945205921
PCSAT (NO-44)           
1 26931U 01043C   26177.16936101  .00000086  00000+0  63208-4 0  9995
2 26931  67.0493 221.0400 0006040 265.0917  94.9495 14.31958797291737
PROBA-1                 
1 26958U 01049B   26177.23019069  .00003822  00000+0  24715-3 0  9993
2 26958  97.9604 186.0778 0056389  92.2696 268.4989 15.07535164344980
SAUDISAT 1C (SO-50)     
1 27607U 02058C   26177.12374630  .00000891  00000+0  12242-3 0  9997
2 27607  64.5520 101.3361 0075052 260.8049  98.4562 14.83064330265783
CORIOLIS                
1 27640U 03001A   26177.00530882  .00000098  00000+0  66448-4 0  9990
2 27640  98.7126 183.7554 0013892 182.6895 177.4209 14.19947094215476
CUTE-1 (CO-55)          
1 27844U 03031E   26176.95866144  .00000278  00000+0  13913-3 0  9993
2 27844  98.6736 185.4073 0010067 153.3060 206.8639 14.24340671192925
CUBESAT XI-IV (CO-57)   
1 27848U 03031J   26176.95152157  .00000236  00000+0  12262-3 0  9999
2 27848  98.6767 185.1059 0009591 171.2745 188.8601 14.23625133192626
MOZHAETS 4 (RS22)       
1 27939U 03042A   26177.18955508  .00001172  00000+0  18861-3 0  9990
2 27939  98.3474   1.8029 0010008 237.5087 256.0760 14.73482348216872
SAUDISAT 2              
1 28371U 04025F   26176.95854909  .00000241  00000+0  64876-4 0  9994
2 28371  98.5508 177.1672 0023442 269.9228  89.9283 14.56688467167022
